start=new Date('2022-06-07T00:00:00.000Z').valueOf();
sats=[{"GP_ID":"205523454","MEAN_ANOMALY":"305.9079","EPHEMERIS_TYPE":"0","REF_FRAME":"TEME","COUNTRY_CODE":"US","CLASSIFICATION_TYPE":"U","BSTAR":"0.00002685400000","OBJECT_NAME":"STARLINK-1052","MEAN_MOTION_DDOT":"0.0000000000000","PERIOD":"95.592","TLE_LINE2":"2 44757  53.0547 245.8214 0001651  54.2063 305.9079 15.06399562141670","APOAPSIS":"548.358","INCLINATION":"53.0547","TLE_LINE1":"1 44757U 19074AW  22157.67855199  .00000118  00000-0  26854-4 0  9994","MEAN_MOTION":"15.06399562","FILE":"3484350","RCS_SIZE":"LARGE","TIME_SYSTEM":"UTC","MEAN_MOTION_DOT":"0.00000118","PERIAPSIS":"546.072","NORAD_CAT_ID":"44757","OBJECT_ID":"2019-074AW","EPOCH":"2022-06-06T16:17:06.891936","LAUNCH_DATE":"2019-11-11","CENTER_NAME":"EARTH","SEMIMAJOR_AXIS":"6925.350","MEAN_ELEMENT_THEORY":"SGP4","SITE":"AFETR","RA_OF_ASC_NODE":"245.8214","ECCENTRICITY":"0.00016510","OBJECT_TYPE":"PAYLOAD","ARG_OF_PERICENTER":"54.2063","DECAY_DATE":null,"REV_AT_EPOCH":"14167","ELEMENT_SET_NO":"999"},{"BSTAR":"-0.00098662000000","CLASSIFICATION_TYPE":"U","OBJECT_NAME":"STARLINK-1053","GP_ID":"205523700","EPHEMERIS_TYPE":"0","MEAN_ANOMALY":"273.2596","COUNTRY_CODE":"US","REF_FRAME":"TEME","TLE_LINE1":"1 44758U 19074AX  22157.68813699 -.00014652  00000-0 -98662-3 0  9990","MEAN_MOTION":"15.05651758","INCLINATION":"53.0551","APOAPSIS":"550.640","TIME_SYSTEM":"UTC","FILE":"3484350","RCS_SIZE":"LARGE","MEAN_MOTION_DDOT":"0.0000000000000","PERIOD":"95.640","TLE_LINE2":"2 44758  53.0551 265.7915 0001634  86.8579 273.2596 15.05651758141408","MEAN_ELEMENT_THEORY":"SGP4","SITE":"AFETR","NORAD_CAT_ID":"44758","PERIAPSIS":"548.376","MEAN_MOTION_DOT":"-0.00014652","EPOCH":"2022-06-06T16:30:55.035936","OBJECT_ID":"2019-074AX","LAUNCH_DATE":"2019-11-11","CENTER_NAME":"EARTH","SEMIMAJOR_AXIS":"6927.643","ARG_OF_PERICENTER":"86.8579","DECAY_DATE":null,"ELEMENT_SET_NO":"999","REV_AT_EPOCH":"14140","ECCENTRICITY":"0.00016340","RA_OF_ASC_NODE":"265.7915","OBJECT_TYPE":"PAYLOAD"},{"MEAN_ELEMENT_THEORY":"SGP4","SITE":"AFETR","EPOCH":"2022-06-06T17:49:59.250432","OBJECT_ID":"2019-074AY","NORAD_CAT_ID":"44759","MEAN_MOTION_DOT":"0.00000628","PERIAPSIS":"546.253","CENTER_NAME":"EARTH","SEMIMAJOR_AXIS":"6925.332","LAUNCH_DATE":"2019-11-11","DECAY_DATE":null,"ARG_OF_PERICENTER":"81.0136","ELEMENT_SET_NO":"999","REV_AT_EPOCH":"13905","ECCENTRICITY":"0.00013630","RA_OF_ASC_NODE":"265.5236","OBJECT_TYPE":"PAYLOAD","BSTAR":"0.00006104500000","CLASSIFICATION_TYPE":"U","OBJECT_NAME":"STARLINK-1054","MEAN_ANOMALY":"279.1007","EPHEMERIS_TYPE":"0","GP_ID":"205524450","REF_FRAME":"TEME","COUNTRY_CODE":"US","TIME_SYSTEM":"UTC","FILE":"3484350","RCS_SIZE":"LARGE","MEAN_MOTION":"15.06405454","TLE_LINE1":"1 44759U 19074AY  22157.74304688  .00000628  00000-0  61045-4 0  9993","INCLINATION":"53.0536","APOAPSIS":"548.141","PERIOD":"95.592","MEAN_MOTION_DDOT":"0.0000000000000","TLE_LINE2":"2 44759  53.0536 265.5236 0001363  81.0136 279.1007 15.06405454139052"},{"APOAPSIS":"548.511","MEAN_MOTION":"15.06393368","TLE_LINE1":"1 44760U 19074AZ  22157.72831440  .00000619  00000-0  60442-4 0  9994","INCLINATION":"53.0573","FILE":"3484350","RCS_SIZE":"LARGE","TIME_SYSTEM":"UTC","TLE_LINE2":"2 44760  53.0573 265.5980 0001844  52.5417 307.5739 15.06393368141411","MEAN_MOTION_DDOT":"0.0000000000000","PERIOD":"95.593","OBJECT_NAME":"STARLINK-1055","BSTAR":"0.00006044200000","CLASSIFICATION_TYPE":"U","COUNTRY_CODE":"US","REF_FRAME":"TEME","GP_ID":"205524674","EPHEMERIS_TYPE":"0","MEAN_ANOMALY":"307.5739","REV_AT_EPOCH":"14141","ELEMENT_SET_NO":"999","ARG_OF_PERICENTER":"52.5417","DECAY_DATE":null,"OBJECT_TYPE":"PAYLOAD","RA_OF_ASC_NODE":"265.5980","ECCENTRICITY":"0.00018440","SITE":"AFETR","MEAN_ELEMENT_THEORY":"SGP4","LAUNCH_DATE":"2019-11-11","SEMIMAJOR_AXIS":"6925.369","CENTER_NAME":"EARTH","MEAN_MOTION_DOT":"0.00000619","PERIAPSIS":"545.957","NORAD_CAT_ID":"44760","OBJECT_ID":"2019-074AZ","EPOCH":"2022-06-06T17:28:46.364160"},{"COUNTRY_CODE":"US","REF_FRAME":"TEME","GP_ID":"205522954","MEAN_ANOMALY":"294.9319","EPHEMERIS_TYPE":"0","OBJECT_NAME":"STARLINK-1056","BSTAR":"0.00003353300000","CLASSIFICATION_TYPE":"U","TLE_LINE2":"2 44761  53.0560 265.8439 0001501  65.1826 294.9319 15.06387515141403","MEAN_MOTION_DDOT":"0.0000000000000","PERIOD":"95.593","MEAN_MOTION":"15.06387515","TLE_LINE1":"1 44761U 19074BA  22157.67303032  .00000218  00000-0  33533-4 0  9996","INCLINATION":"53.0560","APOAPSIS":"548.291","TIME_SYSTEM":"UTC","FILE":"3484350","RCS_SIZE":"LARGE","LAUNCH_DATE":"2019-11-11","CENTER_NAME":"EARTH","SEMIMAJOR_AXIS":"6925.387","NORAD_CAT_ID":"44761","PERIAPSIS":"546.212","MEAN_MOTION_DOT":"0.00000218","EPOCH":"2022-06-06T16:09:09.819648","OBJECT_ID":"2019-074BA","SITE":"AFETR","MEAN_ELEMENT_THEORY":"SGP4","OBJECT_TYPE":"PAYLOAD","ECCENTRICITY":"0.00015010","RA_OF_ASC_NODE":"265.8439","ELEMENT_SET_NO":"999","REV_AT_EPOCH":"14140","ARG_OF_PERICENTER":"65.1826","DECAY_DATE":null},{"SITE":"AFETR","MEAN_ELEMENT_THEORY":"SGP4","CENTER_NAME":"EARTH","SEMIMAJOR_AXIS":"6925.348","LAUNCH_DATE":"2019-11-11","EPOCH":"2022-06-06T17:47:20.253696","OBJECT_ID":"2019-074BB","NORAD_CAT_ID":"44762","PERIAPSIS":"546.161","MEAN_MOTION_DOT":"0.00000481","ELEMENT_SET_NO":"999","REV_AT_EPOCH":"14168","DECAY_DATE":null,"ARG_OF_PERICENTER":"50.6107","OBJECT_TYPE":"PAYLOAD","ECCENTRICITY":"0.00015190","RA_OF_ASC_NODE":"245.5335","OBJECT_NAME":"STARLINK-1057","CLASSIFICATION_TYPE":"U","BSTAR":"0.00005117100000","COUNTRY_CODE":"US","REF_FRAME":"TEME","EPHEMERIS_TYPE":"0","MEAN_ANOMALY":"309.5016","GP_ID":"205523200","TIME_SYSTEM":"UTC","RCS_SIZE":"LARGE","FILE":"3484350","INCLINATION":"53.0567","TLE_LINE1":"1 44762U 19074BB  22157.74120664  .00000481  00000-0  51171-4 0  9993","MEAN_MOTION":"15.06400120","APOAPSIS":"548.265","TLE_LINE2":"2 44762  53.0567 245.5335 0001519  50.6107 309.5016 15.06400120141686","PERIOD":"95.592","MEAN_MOTION_DDOT":"0.0000000000000"},{"MEAN_MOTION_DOT":"0.00000410","PERIAPSIS":"546.123","NORAD_CAT_ID":"44763","OBJECT_ID":"2019-074BC","EPOCH":"2022-06-06T16:40:59.708928","LAUNCH_DATE":"2019-11-11","SEMIMAJOR_AXIS":"6925.339","CENTER_NAME":"EARTH","MEAN_ELEMENT_THEORY":"SGP4","SITE":"AFETR","RA_OF_ASC_NODE":"265.7531","ECCENTRICITY":"0.00015600","OBJECT_TYPE":"PAYLOAD","ARG_OF_PERICENTER":"59.4992","DECAY_DATE":null,"REV_AT_EPOCH":"14140","ELEMENT_SET_NO":"999","GP_ID":"205523950","EPHEMERIS_TYPE":"0","MEAN_ANOMALY":"300.6151","COUNTRY_CODE":"US","REF_FRAME":"TEME","CLASSIFICATION_TYPE":"U","BSTAR":"0.00004644400000","OBJECT_NAME":"STARLINK-1058","MEAN_MOTION_DDOT":"0.0000000000000","PERIOD":"95.592","TLE_LINE2":"2 44763  53.0540 265.7531 0001560  59.4992 300.6151 15.06403204141403","APOAPSIS":"548.284","INCLINATION":"53.0540","TLE_LINE1":"1 44763U 19074BC  22157.69513552  .00000410  00000-0  46444-4 0  9999","MEAN_MOTION":"15.06403204","FILE":"3484350","RCS_SIZE":"LARGE","TIME_SYSTEM":"UTC"},{"TLE_LINE2":"2 44764  53.0557 245.8598 0001722  55.5851 304.5300 15.06425765141679","MEAN_MOTION_DDOT":"0.0000000000000","PERIOD":"95.591","APOAPSIS":"548.327","INCLINATION":"53.0557","TLE_LINE1":"1 44764U 19074BD  22157.67114124  .00001971  00000-0  15106-3 0  9993","MEAN_MOTION":"15.06425765","RCS_SIZE":"LARGE","FILE":"3484350","TIME_SYSTEM":"UTC","COUNTRY_CODE":"US","REF_FRAME":"TEME","GP_ID":"205524174","MEAN_ANOMALY":"304.5300","EPHEMERIS_TYPE":"0","OBJECT_NAME":"STARLINK-1059","BSTAR":"0.00015106000000","CLASSIFICATION_TYPE":"U","OBJECT_TYPE":"PAYLOAD","RA_OF_ASC_NODE":"245.8598","ECCENTRICITY":"0.00017220","REV_AT_EPOCH":"14167","ELEMENT_SET_NO":"999","ARG_OF_PERICENTER":"55.5851","DECAY_DATE":null,"LAUNCH_DATE":"2019-11-11","SEMIMAJOR_AXIS":"6925.270","CENTER_NAME":"EARTH","PERIAPSIS":"545.942","MEAN_MOTION_DOT":"0.00001971","NORAD_CAT_ID":"44764","OBJECT_ID":"2019-074BD","EPOCH":"2022-06-06T16:06:26.603136","SITE":"AFETR","MEAN_ELEMENT_THEORY":"SGP4"},{"MEAN_MOTION":"15.06402728","TLE_LINE1":"1 44765U 19074BE  22157.49056476  .00000357  00000-0  42856-4 0  9999","INCLINATION":"53.0553","APOAPSIS":"548.205","TIME_SYSTEM":"UTC","FILE":"3484104","RCS_SIZE":"LARGE","TLE_LINE2":"2 44765  53.0553 246.6536 0001444  71.0836 289.0309 15.06402728141641","MEAN_MOTION_DDOT":"0.0000000000000","PERIOD":"95.592","OBJECT_NAME":"STARLINK-1060","CLASSIFICATION_TYPE":"U","BSTAR":"0.00004285600000","COUNTRY_CODE":"US","REF_FRAME":"TEME","GP_ID":"205493381","MEAN_ANOMALY":"289.0309","EPHEMERIS_TYPE":"0","ELEMENT_SET_NO":"999","REV_AT_EPOCH":"14164","ARG_OF_PERICENTER":"71.0836","DECAY_DATE":null,"OBJECT_TYPE":"PAYLOAD","ECCENTRICITY":"0.00014440","RA_OF_ASC_NODE":"246.6536","SITE":"AFETR","MEAN_ELEMENT_THEORY":"SGP4","LAUNCH_DATE":"2019-11-11","SEMIMAJOR_AXIS":"6925.340","CENTER_NAME":"EARTH","NORAD_CAT_ID":"44765","PERIAPSIS":"546.205","MEAN_MOTION_DOT":"0.00000357","EPOCH":"2022-06-06T11:46:24.795264","OBJECT_ID":"2019-074BE"},{"BSTAR":"0.00018449000000","CLASSIFICATION_TYPE":"U","OBJECT_NAME":"STARLINK-1061","GP_ID":"205523701","EPHEMERIS_TYPE":"0","MEAN_ANOMALY":"278.7418","REF_FRAME":"TEME","COUNTRY_CODE":"US","MEAN_MOTION":"15.06398680","TLE_LINE1":"1 44766U 19074BF  22157.68776656  .00002467  00000-0  18449-3 0  9994","INCLINATION":"53.0568","APOAPSIS":"548.166","TIME_SYSTEM":"UTC","FILE":"3484350","RCS_SIZE":"LARGE","MEAN_MOTION_DDOT":"0.0000000000000","PERIOD":"95.592","TLE_LINE2":"2 44766  53.0568 265.7820 0001369  81.3726 278.7418 15.06398680141405","MEAN_ELEMENT_THEORY":"SGP4","SITE":"AFETR","NORAD_CAT_ID":"44766","MEAN_MOTION_DOT":"0.00002467","PERIAPSIS":"546.270","EPOCH":"2022-06-06T16:30:23.030784","OBJECT_ID":"2019-074BF","LAUNCH_DATE":"2019-11-11","SEMIMAJOR_AXIS":"6925.353","CENTER_NAME":"EARTH","ARG_OF_PERICENTER":"81.3726","DECAY_DATE":null,"ELEMENT_SET_NO":"999","REV_AT_EPOCH":"14140","ECCENTRICITY":"0.00013690","RA_OF_ASC_NODE":"265.7820","OBJECT_TYPE":"PAYLOAD"}];
